[{"OBJECT_NAME":"TECHNOSAT","OBJECT_ID":"2017-042E","EPOCH":"2026-03-09T21:27:07.546176","MEAN_MOTION":15.04288119,"ECCENTRICITY":0.00196291,"INCLINATION":97.4156,"RA_OF_ASC_NODE":230.4429,"ARG_OF_PERICENTER":75.0719,"MEAN_ANOMALY":285.2679,"EPHEMERIS_TYPE":0,"CLASSIFICATION_TYPE":"U","NORAD_CAT_ID":42829,"ELEMENT_SET_NO":999,"REV_AT_EPOCH":47177,"BSTAR":0.00032015047,"MEAN_MOTION_DOT":4.417e-5,"MEAN_MOTION_DDOT":0},{"OBJECT_NAME":"STARLINK-3765","OBJECT_ID":"2022-041AL","EPOCH":"2026-03-09T08:37:46.460064","MEAN_MOTION":15.08840231,"ECCENTRICITY":0.00013767,"INCLINATION":53.2164,"RA_OF_ASC_NODE":100.6021,"ARG_OF_PERICENTER":93.7919,"MEAN_ANOMALY":266.323,"EPHEMERIS_TYPE":0,"CLASSIFICATION_TYPE":"U","NORAD_CAT_ID":52295,"ELEMENT_SET_NO":999,"REV_AT_EPOCH":21445,"BSTAR":-3.473312e-5,"MEAN_MOTION_DOT":-8.41e-6,"MEAN_MOTION_DDOT":0}]
